{
  "norad_id": 63866,
  "name": "STARLINK-34022",
  "history": [
    {
      "epoch": "2026-03-28T16:03:29.553984",
      "apogee_km": 574.2587476674971,
      "perigee_km": 569.8023002511336,
      "latitude_deg": 10.23915967479699,
      "longitude_deg": -89.1671622400172,
      "semi_major_axis_km": 6950.167523959315,
      "eccentricity": 0.0003206,
      "inclination_deg": 70.0016,
      "raan_deg": 186.7005,
      "arg_perigee_deg": 269.9583,
      "mean_anomaly_deg": 90.1209,
      "mean_motion_rev_day": 14.98338203
    },
    {
      "epoch": "2026-03-29T00:04:10.246368",
      "apogee_km": 573.8972583943223,
      "perigee_km": 570.1858630428987,
      "latitude_deg": 62.03843508547124,
      "longitude_deg": -57.12194847990759,
      "semi_major_axis_km": 6950.17856071861,
      "eccentricity": 0.000267,
      "inclination_deg": 70.0037,
      "raan_deg": 185.8588,
      "arg_perigee_deg": 270.3818,
      "mean_anomaly_deg": 89.7035,
      "mean_motion_rev_day": 14.98334634
    }
  ]
}